     2              NAVIGATION DATA                         RINEX VERSION / TYPE
CCRINEXN V1.6.0 UX  CDDIS               11-SEP-06 13:17     PGM / RUN BY / DATE 
IGS BROADCAST EPHEMERIS FILE                                COMMENT             
    0.1118E-07 -0.7451E-08 -0.5960E-07  0.1192E-06          ION ALPHA           
    0.1167E+06 -0.2294E+06 -0.1311E+06  0.1049E+07          ION BETA            
    0.465661287308E-08 0.159872115546E-13   147456     1356 DELTA-UTC: A0,A1,T,W
    13                                                      LEAP SECONDS        
                                                            END OF HEADER       
21 06  1  1  4  0  0.0 0.163712538779E-03 0.375166564481E-11 0.000000000000E+00
    0.176000000000E+03 0.415000000000E+02 0.465340811884E-08-0.377580469959E+00
    0.221654772758E-05 0.105167675065E-01 0.107213854790E-04 0.515374631882E+04
    0.144000000000E+05 0.210478901863E-06 0.297957915765E+01 0.689178705216E-07
    0.945536359282E+00 0.164437500000E+03-0.302841493412E+01-0.801426239763E-08
   -0.491091884520E-09 0.100000000000E+01 0.135600000000E+04 0.000000000000E+00
    0.280000000000E+01 0.000000000000E+00-0.116415321827E-07 0.688000000000E+03
    0.721800000000E+04 0.400000000000E+01 0.000000000000E+00 0.000000000000E+00
22 06  1  1  4  0  0.0 0.592428259551E-04 0.204636307899E-11 0.000000000000E+00
    0.234000000000E+03 0.165250000000E+03 0.455483258420E-08 0.281260606806E+01
    0.853277742863E-05 0.499775668141E-02 0.491738319397E-05 0.515368933106E+04
    0.144000000000E+05 0.931322574615E-07-0.224413334148E+01-0.204890966415E-07
    0.957108421647E+00 0.283125000000E+03-0.156291680279E+01-0.806855037322E-08
    0.207151485834E-09 0.100000000000E+01 0.135600000000E+04 0.000000000000E+00
    0.200000000000E+01 0.000000000000E+00-0.181607902050E-07 0.234000000000E+03
    0.721800000000E+04 0.400000000000E+01 0.000000000000E+00 0.000000000000E+00
23 06  1  1  4  0  0.0 0.156524591148E-03-0.170530256582E-11 0.000000000000E+00
    0.218000000000E+03-0.250000000000E+02 0.483234414367E-08 0.217507350669E+01
   -0.110641121864E-05 0.417981145438E-02-0.197812914848E-05 0.515360664940E+04
    0.144000000000E+05 0.707805156708E-07-0.125119229510E+01 0.745058059692E-08
    0.966777521639E+00 0.420125000000E+03 0.242405069304E+01-0.862000191482E-08
   -0.159649507186E-09 0.100000000000E+01 0.135600000000E+04 0.000000000000E+00
    0.200000000000E+01 0.000000000000E+00-0.214204192162E-07 0.218000000000E+03
    0.762600000000E+04 0.400000000000E+01 0.000000000000E+00 0.000000000000E+00
24 06  1  1  4  0  0.0 0.738389790058E-04 0.295585778076E-11 0.000000000000E+00
    0.205000000000E+03 0.426250000000E+02 0.434410952103E-08 0.529125580136E+00
    0.215694308281E-05 0.903396704234E-02 0.116061419249E-04 0.515375963211E+04
    0.144000000000E+05-0.689178705216E-07 0.299074893217E+01-0.167638063431E-06
    0.962226399586E+00 0.155500000000E+03-0.997651253459E+00-0.786675625340E-08
   -0.586452999550E-09 0.100000000000E+01 0.135600000000E+04 0.000000000000E+00
    0.280000000000E+01 0.000000000000E+00-0.931322574616E-09 0.461000000000E+03
    0.721800000000E+04 0.400000000000E+01 0.000000000000E+00 0.000000000000E+00
26 06  1  1  4  0  0.0-0.702077522874E-05-0.727595761418E-11 0.000000000000E+00
    0.280000000000E+02-0.225625000000E+02 0.435732435719E-08 0.130930025555E+01
   -0.111572444439E-05 0.167636129772E-01-0.426545739174E-06 0.515364985847E+04
    0.144000000000E+05-0.162050127983E-06-0.122663413570E+01 0.242143869400E-06
    0.988514652723E+00 0.406875000000E+03 0.747076837058E+00-0.847713882114E-08
   -0.257153568621E-09 0.100000000000E+01 0.135600000000E+04 0.000000000000E+00
    0.200000000000E+01 0.000000000000E+00-0.605359673500E-08 0.280000000000E+02
    0.721800000000E+04 0.400000000000E+01 0.000000000000E+00 0.000000000000E+00
27 06  1  1  4  0  0.0 0.296290963888E-04 0.159161572810E-11 0.000000000000E+00
    0.980000000000E+02-0.166156250000E+03 0.429982196199E-08-0.139733725239E+01
   -0.850111246109E-05 0.196253720205E-01 0.734813511372E-05 0.515372184563E+04
    0.144000000000E+05 0.411644577980E-06-0.262022411611E+00 0.381842255592E-06
    0.956902644665E+00 0.230125000000E+03-0.198025661537E+01-0.793533053837E-08
   -0.277511559470E-09 0.000000000000E+00 0.135600000000E+04 0.000000000000E+00
    0.200000000000E+01 0.000000000000E+00-0.465661287308E-08 0.980000000000E+02
    0.723000000000E+04 0.400000000000E+01 0.000000000000E+00 0.000000000000E+00
28 06  1  1  4  0  0.0 0.359658151865E-04-0.682121026330E-12 0.000000000000E+00
    0.133000000000E+03-0.218437500000E+02 0.426874923911E-08-0.257837707674E+01
   -0.117532908917E-05 0.107646102551E-01 0.100731849670E-04 0.515365554047E+04
    0.144000000000E+05 0.763684511185E-07 0.861784340205E+00-0.949949026108E-07
    0.959848949973E+00 0.184250000000E+03-0.230465523234E+01-0.749816947171E-08
    0.773603652269E-09 0.000000000000E+00 0.135600000000E+04 0.000000000000E+00
    0.280000000000E+01 0.000000000000E+00-0.102445483208E-07 0.389000000000E+03
    0.789000000000E+04 0.400000000000E+01 0.000000000000E+00 0.000000000000E+00
29 06  1  1  4  0  0.0 0.481572002173E-03 0.147792889038E-10 0.000000000000E+00
    0.850000000000E+02-0.178125000000E+02 0.430767943214E-08-0.300651823963E+01
   -0.780448317528E-06 0.926963810343E-02-0.143796205521E-05 0.515368806457E+04
    0.144000000000E+05 0.391155481338E-07-0.126083935769E+01 0.223517417908E-06
    0.985251384269E+00 0.418562500000E+03-0.101356299355E+01-0.817034032747E-08
   -0.389301930274E-10 0.100000000000E+01 0.135600000000E+04 0.000000000000E+00
    0.200000000000E+01 0.000000000000E+00-0.651925802231E-08 0.850000000000E+02
    0.721800000000E+04 0.400000000000E+01 0.000000000000E+00 0.000000000000E+00
30 06  1  1  4  0  0.0 0.915164127946E-05 0.579802872380E-11 0.000000000000E+00
    0.870000000000E+02-0.421875000000E+01 0.466876590141E-08-0.227819847152E+01
   -0.212341547012E-06 0.871418544557E-02 0.103786587715E-04 0.515360637093E+04
    0.144000000000E+05 0.894069671631E-07 0.810145562957E+00-0.113621354103E-06
    0.944007753255E+00 0.170156250000E+03 0.129635320087E+01-0.776210903728E-08
    0.663956227871E-09 0.100000000000E+01 0.135600000000E+04 0.000000000000E+00
    0.280000000000E+01 0.000000000000E+00-0.838190317154E-08 0.343000000000E+03
    0.721800000000E+04 0.400000000000E+01 0.000000000000E+00 0.000000000000E+00
 3 06  1  1  5 59 44.0 0.630877912044E-04 0.306954461848E-11 0.000000000000E+00
    0.115000000000E+03-0.206250000000E+01 0.569202280988E-08 0.287480049852E+01
   -0.122934579849E-06 0.778152805287E-02 0.471435487270E-05 0.515364820099E+04
    0.215840000000E+05-0.316649675369E-07 0.180411051155E+01-0.726431608200E-07
    0.925944130890E+00 0.270968750000E+03 0.656407604412E+00-0.842749389609E-08
    0.750031241812E-11 0.100000000000E+01 0.135600000000E+04 0.000000000000E+00
    0.200000000000E+01 0.000000000000E+00-0.419095158577E-08 0.115000000000E+03
    0.170580000000E+05 0.400000000000E+01 0.000000000000E+00 0.000000000000E+00
 4 06  1  1  5 59 44.0 0.103962607682E-03 0.123918653117E-10 0.000000000000E+00
    0.390000000000E+02 0.389375000000E+02 0.451375944477E-08-0.163979273092E+00
    0.216253101826E-05 0.741577032022E-02 0.111591070890E-04 0.515375833511E+04
    0.215840000000E+05 0.931322574615E-07 0.295838712740E+01-0.521540641785E-07
    0.951938751499E+00 0.156718750000E+03 0.112105681400E+00-0.790782939284E-08
   -0.565737850967E-09 0.100000000000E+01 0.135600000000E+04 0.000000000000E+00
    0.200000000000E+01 0.000000000000E+00-0.605359673500E-08 0.390000000000E+02
    0.144180000000E+05 0.400000000000E+01 0.000000000000E+00 0.000000000000E+00
10 06  1  1  5 59 44.0 0.763675197959E-04 0.682121026330E-12 0.000000000000E+00
    0.410000000000E+02 0.173406250000E+03 0.407874132452E-08-0.223019340576E+01
    0.869296491146E-05 0.680195156019E-02 0.716187059879E-05 0.515379406166E+04
    0.215840000000E+05 0.279396772385E-07-0.227657433694E+01-0.158324837685E-06
    0.975636331786E+00 0.250406250000E+03 0.358524585371E+00-0.788139972050E-08
    0.339299847486E-09 0.100000000000E+01 0.135600000000E+04 0.000000000000E+00
    0.200000000000E+01 0.000000000000E+00-0.232830643654E-08 0.410000000000E+02
    0.156420000000E+05 0.400000000000E+01 0.000000000000E+00 0.000000000000E+00
11 06  1  1  5 59 44.0 0.295636709779E-03 0.306954461848E-11 0.000000000000E+00
    0.122000000000E+03 0.194375000000E+02 0.583381443036E-08 0.138998527419E+01
    0.936910510063E-06 0.515898945741E-02 0.994652509689E-05 0.515369441414E+04
    0.215840000000E+05 0.391155481338E-07 0.280167951537E+01 0.670552253723E-07
    0.899230414362E+00 0.153875000000E+03 0.312613619555E+00-0.848356766036E-08
   -0.691100215669E-09 0.100000000000E+01 0.135600000000E+04 0.000000000000E+00
    0.200000000000E+01 0.000000000000E+00-0.116415321827E-07 0.122000000000E+03
    0.169080000000E+05 0.400000000000E+01 0.000000000000E+00 0.000000000000E+00
19 06  1  1  5 59 44.0-0.244658440351E-04 0.682121026330E-12 0.000000000000E+00
    0.161000000000E+03-0.665625000000E+01 0.498199323430E-08-0.203065422805E+01
   -0.216066837311E-06 0.311305641662E-02 0.523775815964E-05 0.515376292229E+04
    0.215840000000E+05 0.707805156708E-07 0.195102100217E+01 0.968575477600E-07
    0.958011207412E+00 0.276218750000E+03-0.136284241064E+01-0.808640825993E-08
   -0.182507602174E-09 0.100000000000E+01 0.135600000000E+04 0.000000000000E+00
    0.200000000000E+01 0.000000000000E+00-0.144354999065E-07 0.161000000000E+03
    0.186180000000E+05 0.400000000000E+01 0.000000000000E+00 0.000000000000E+00
